[{"OBJECT_NAME":"STARLINK-6192","OBJECT_ID":"2023-083AD","EPOCH":"2026-03-09T22:00:01.999584","MEAN_MOTION":15.1488328,"ECCENTRICITY":0.00021062,"INCLINATION":43.0015,"RA_OF_ASC_NODE":79.7592,"ARG_OF_PERICENTER":275.013,"MEAN_ANOMALY":85.6759,"EPHEMERIS_TYPE":0,"CLASSIFICATION_TYPE":"U","NORAD_CAT_ID":56903,"ELEMENT_SET_NO":999,"REV_AT_EPOCH":557,"BSTAR":0.066421803,"MEAN_MOTION_DOT":0.01370336,"MEAN_MOTION_DDOT":0},{"OBJECT_NAME":"OBJECT C","OBJECT_ID":"2025-197C","EPOCH":"2026-03-09T23:04:01.696800","MEAN_MOTION":15.23580455,"ECCENTRICITY":0.00147185,"INCLINATION":97.4111,"RA_OF_ASC_NODE":257.1199,"ARG_OF_PERICENTER":4.9748,"MEAN_ANOMALY":355.1632,"EPHEMERIS_TYPE":0,"CLASSIFICATION_TYPE":"U","NORAD_CAT_ID":65490,"ELEMENT_SET_NO":999,"REV_AT_EPOCH":2820,"BSTAR":0.00026991529,"MEAN_MOTION_DOT":6.405e-5,"MEAN_MOTION_DDOT":0}]
